ONEWEB-0415             
1 51624U 22012C   24204.38551677  .00000278  00000+0  75878-3 0  9993
2 51624  87.8950 174.4610 0001731  89.5778 270.5548 13.10369983118291
ONEWEB-0416             
1 51625U 22012D   24204.39713044 -.00000301  00000+0 -89839-3 0  9994
2 51625  87.8959 174.4555 0002216  86.5486 273.5894 13.10366546118335
ONEWEB-0423             
1 51627U 22012F   24204.32851227  .00000039  00000+0  66277-4 0  9993
2 51627  87.9191 144.2090 0002161  77.2727 282.8646 13.17647790122196
ONEWEB-0425             
1 51628U 22012G   24204.40708477 -.00000557  00000+0 -16322-2 0  9992
2 51628  87.8957 174.4358 0002429  86.6153 273.5253 13.10372902118337
ONEWEB-0428             
1 51629U 22012H   24204.38717579  .00000188  00000+0  50120-3 0  9996
2 51629  87.8953 174.4557 0001810  77.4712 282.6618 13.10369821118294
ONEWEB-0431             
1 51630U 22012J   24204.43351837  .00000383  00000+0  10620-2 0  9992
2 51630  87.8955 174.4413 0001369  74.3313 285.7965 13.10375574118359
ONEWEB-0434             
1 51631U 22012K   24204.41040380 -.00000578  00000+0 -16916-2 0  9991
2 51631  87.8960 174.4628 0002092  78.8022 281.3340 13.10373684118331
